TERRA                   
1 25994U 99068A   21202.14389059  .00000042  00000-0  19353-4 0  9998
2 25994  98.1748 275.9491 0001277  95.1059 294.6986 14.57134564148378
SL-16 R/B               
1 26070U 00006B   21201.88171833 -.00000290  00000-0 -12359-3 0  9992
2 26070  71.0025  55.9982 0018631 242.2136 117.7098 14.15468889109017
MTI                     
1 26102U 00014A   21201.69296556  .00009763  00000-0  11430-3 0  9997
2 26102  97.4639 110.0381 0005889 176.8696 183.2601 15.61752858186530
TITAN 4B R/B            
1 26474U 00047B   21202.04752375  .00000179  00000-0  26333-4 0  9992
2 26474  67.9938  58.3572 0051822 121.8663 238.7538 14.96180727138948
ENVISAT                 
1 27386U 02009A   21201.98456895  .00000016  00000-0  18708-4 0  9992
2 27386  98.1495 194.3313 0001369  90.1564 329.6228 14.38034085 15893
IDEFIX & ARIANE 42P R/B 
1 27422U 02021B   21201.84971124 -.00000005  00000-0  14629-4 0  9996
2 27422  98.4041 153.6629 0013034 130.4095 229.8226 14.29324899  2082
AQUA                    
1 27424U 02022A   21202.18119819  .00000074  00000-0  26418-4 0  9996
2 27424  98.2104 143.0243 0001521 117.5761 354.7340 14.57107239 21984
CZ-4B R/B               
1 27432U 02024C   21202.04523247 -.00000021  00000-0  12765-4 0  9999
2 27432  99.0840 217.0096 0051213 131.2584 289.9022 14.14111377990067
MIDORI II (ADEOS-II)    
1 27597U 02056A   21201.87889620  .00000009  00000-0  21440-4 0  9991
2 27597  98.5655 146.5264 0000229  77.2884 282.8323 14.27508115968653
H-2A R/B                
1 27601U 02056E   21201.88003345  .00000071  00000-0  40061-4 0  9999
2 27601  98.1880 222.2533 0072379 169.2540 273.9581 14.32002997971713
CZ-4B R/B               
1 28059U 03049C   21202.21295677  .00000017  00000-0  15834-4 0  9999
2 28059  98.4942 129.4102 0050172   1.0823 359.0472 14.52659735940707
CZ-2C R/B               
1 28222U 04012C   21201.87410950  .00000692  00000-0  44507-4 0  9994
2 28222  97.7291 173.0174 0048118 106.5204 309.4975 15.10940027946146
SL-16 R/B               
1 28353U 04021B   21201.70273121  .00000357  00000-0  21204-3 0  9994
2 28353  70.9996 184.0756 0003147  91.6938 268.4545 14.14246725883442
CZ-4B R/B               
1 28415U 04035C   21201.82936439 -.00000009  00000-0  36344-5 0  9997
2 28415  97.5625 243.7974 0052822  73.8892 286.8142 15.07159180923639
CZ-2C R/B               
1 28480U 04046B   21202.03595750  .00000013  00000-0  19243-4 0  9994
2 28480  98.0493 211.3316 0142974 124.0323 297.4271 14.25757682867231
ARIANE 5 R/B            
1 28499U 04049H   21202.23687615  .00000042  00000-0  12383-4 0  9991
2 28499  98.0730 311.6610 0093203  64.9515 323.4496 14.80137015895122
CZ-2D R/B               
1 28738U 05024B   21202.05261962  .00000486  00000-0  31487-4 0  9992
2 28738  97.3597 216.8952 0010247 241.8440 118.1757 15.12463483881666
SUZAKU (ASTRO-EII)      
1 28773U 05025A   21201.56595405  .00001206  00000-0  52785-4 0  9994
2 28773  31.3818 306.3082 0004525 258.8827 101.1311 15.18503310884501
ALOS (DAICHI)           
1 28931U 06002A   21202.21042845  .00000110  00000-0  30157-4 0  9996
2 28931  97.8882 175.4770 0000659  36.7627 323.3615 14.62858460825999
H-2A R/B                
1 28932U 06002B   21201.79571507  .00000244  00000-0  28230-4 0  9998
2 28932  98.3261 220.6787 0089538  98.2877  74.2483 14.92604766840668
AKARI (ASTRO-F)         
1 28939U 06005A   21201.83667989  .00004451  00000-0  10971-3 0  9999
2 28939  98.2414 229.2206 0086502   8.8251 351.4487 15.37391412842034
RESURS-DK 1             
1 29228U 06021A   21201.56494802  .00000068  00000-0  12441-4 0  9996
2 29228  69.9346 254.3883 0006765 234.6430 125.4099 15.02717783832511
GENESIS 1               
1 29252U 06029A   21201.87495269  .00000310  00000-0  24659-4 0  9997
2 29252  64.5206  77.8872 0047763 314.0447  45.6746 15.18739647828599
CZ-4B R/B               
1 29507U 06046C   21202.08953020  .00001041  00000-0  84728-4 0  9992
2 29507  97.7508 227.9173 0046108 263.0000  96.5978 15.00996492805206
CZ-2C R/B               
1 31114U 07010B   21202.09696721 -.00000069  00000-0 -14056-4 0  9992
2 31114  98.2325  33.4444 0059611 183.5357 176.5407 14.19368873739567
COSMO-SKYMED 1          
1 31598U 07023A   21202.06005501 -.00001645  00000-0 -20022-3 0  9999
2 31598  97.8910  25.4719 0001627  85.9748 274.1693 14.82134678763874
GENESIS 2               
1 31789U 07028A   21201.79389949  .00000311  00000-0  25218-4 0  9996
2 31789  64.4986 120.6299 0002532  44.5875 315.5451 15.17827228775568
COSMOS 2428             
1 31792U 07029A   21202.11998518  .00000312  00000-0  19537-3 0  9993
2 31792  70.9043 155.2406 0009533 202.9323 157.1373 14.12310758725150
SL-16 R/B               
1 31793U 07029B   21201.85453635  .00000165  00000-0  11122-3 0  9998
2 31793  70.9758 129.4594 0001776 277.5398 139.1766 14.14444282725974
KORONAS-FOTON           
1 33504U 09003A   21201.68837302  .00000614  00000-0  30137-4 0  9999
2 33504  82.4415 186.4558 0018455 346.0668  14.0052 15.16041345687681
H-2A R/B                
1 38341U 12025E   21201.76364538  .00000118  00000-0  21257-4 0  9998
2 38341  98.5279  29.5291 0056048  33.6880 326.7874 14.84246437496526
CUSAT 2 & FALCON 9 R/B  
1 39271U 13055G   21201.70529535  .00010028  00000-0  23089-3 0  9994
2 39271  80.9622 197.0398 0568355  48.3265 316.5150 14.53208610408461
CZ-2C R/B               
1 39364U 13059B   21201.86572349  .00001539  00000-0  57008-4 0  9995
2 39364  97.2105 261.3860 0048173  74.7078 285.9480 15.28072239429531
SL-4 R/B                
1 39679U 14021B   21201.87779475 -.00000035  00000-0  16410-4 0  9997
2 39679  51.6175  57.6411 0169321 246.9737 111.3299 15.07030386399094
ALOS-2                  
1 39766U 14029A   21202.20678862  .00000107  00000-0  21188-4 0  9995
2 39766  97.9222 299.0844 0001630  91.8439 268.2943 14.79472833386654
CZ-2C R/B               
1 40306U 14071B   21201.85200960  .00004483  00000-0  85065-4 0  9999
2 40306  97.3720 160.1185 0015012 145.5921 214.6305 15.48738192375421
SL-27 R/B               
1 40354U 14084B   21202.04259285  .00000906  00000-0  22608-4 0  9992
2 40354  74.7376 282.9143 0037920 270.9508  88.7360 15.41204413369918
YAOGAN 29               
1 41038U 15069A   21202.06529141 -.00000012  00000-0  54216-5 0  9999
2 41038  98.0383 196.1470 0002255  67.5892 292.5560 14.80512978305257
ASTRO-H (HITOMI)        
1 41337U 16012A   21201.73023145  .00000272  00000-0  15069-4 0  9995
2 41337  31.0063   4.1930 0012223  46.8517 313.3138 14.98860564297305
HXMT (HUIYAN)           
1 42758U 17034A   21202.21509696  .00000336  00000-0  34328-4 0  9992
2 42758  43.0183   7.8034 0009024   0.9019 167.9770 15.09235831226119
CZ-2C R/B               
1 43521U 18054D   21201.83539721  .00000441  00000-0  25890-4 0  9994
2 43521  35.1525 243.8270 0081342  32.5769 327.9930 15.11592177169451
AEOLUS                  
1 43600U 18066A   21202.10372664  .00035545  00000-0  13853-3 0  9995
2 43600  96.7128 208.4148 0005854 137.2582 222.9148 15.86992055168581
SAOCOM 1A               
1 43641U 18076A   21202.20346943  .00000004  00000-0  70118-5 0  9994
2 43641  97.8885  28.6485 0001522  83.6934 276.4430 14.82155792150669
CREW DRAGON DEMO-1 DEB  
1 44064U 19011B   21200.88031934  .06113351  12365-4  50191-3 0  9991
2 44064  51.6051  60.7312 0011883 271.9116  88.0549 16.38696548135644
SAOCOM 1B               
1 46265U 20059A   21202.09956991  .00000007  00000-0  74804-5 0  9999
2 46265  97.8888  27.6000 0001542  83.8937 276.2451 14.82157941 48043
CZ-2F R/B               
1 46390U 20063B   21182.28874689  .23468418  12743-4  12750-3 0  9994
2 46390  50.1712 239.0903 0007795 296.2910  63.9094 16.54443464 47747
2020-063G               
1 46395U 20063G   21201.85979111  .00026934  00000-0  92051-4 0  9990
2 46395  50.2011 153.3585 0006222 257.1964 102.8326 15.89476724 50598
SL-4 R/B                
1 47547U 21008B   21201.99844826  .00050081  54186-5  17964-3 0  9997
2 47547  67.1395 295.2294 0379928 294.4534  61.7427 15.26924154 25465
TIANHE                  
1 48274U 21035A   21201.97086524  .00007005  00000-0  79826-4 0  9991
2 48274  41.4697  76.9914 0007501 201.7530 111.5021 15.62597770 12974
